O3B FM5                 
1 39188U 13031A   25103.71313446 -.00000022  00000+0  00000+0 0  9990
2 39188   0.0479 342.0459 0002768  46.1705 331.7988  5.00115411215559
O3B FM2                 
1 39190U 13031C   25101.26171935 -.00000026  00000+0  00000+0 0  9990
2 39190   0.0519  20.2516 0002712   3.8048 335.9548  5.00115815215506
O3B PFM                 
1 39191U 13031D   25103.68591440 -.00000022  00000+0  00000+0 0  9992
2 39191   0.0488 352.9107 0002683  30.8736 336.2284  5.00115264215187
O3B FM3                 
1 40079U 14038A   25103.74086725 -.00000022  00000+0  00000+0 0  9999
2 40079   0.0481   6.5036 0004755   9.5593 343.9525  5.00113799191565
O3B FM7                 
1 40080U 14038B   25103.68697944 -.00000022  00000+0  00000+0 0  9995
2 40080   0.0457  11.0543 0002589  53.8369 295.1359  5.00115463196399
O3B FM6                 
1 40081U 14038C   25103.71406608 -.00000022  00000+0  00000+0 0  9995
2 40081   0.0490   7.1002 0002783  16.9003 336.0128  5.00115666196343
O3B FM8                 
1 40082U 14038D   25103.76751081 -.00000022  00000+0  00000+0 0  9999
2 40082   0.0483   7.9875 0002628  12.4737 339.5497  5.00115751196460
O3B FM10                
1 40348U 14083A   25075.80933269 -.00000023  00000+0  00000+0 0  9998
2 40348   0.0548 356.7240 0002390  41.9353 321.3546  5.00114891187014
O3B FM11                
1 40349U 14083B   25104.00704201 -.00000022  00000+0  00000+0 0  9995
2 40349   0.0474 356.4818 0002890  41.0560 322.4829  5.00115698188605
O3B FM12                
1 40350U 14083C   25103.63451029 -.00000022  00000+0  00000+0 0  9992
2 40350   0.0479 357.8246 0002888  28.0671 334.1230  5.00115856188430
O3B FM9                 
1 40351U 14083D   25101.66235206 -.00000025  00000+0  00000+0 0  9994
2 40351   0.0465 355.7763 0002684  27.9148 336.3201  5.00115568188485
LEO 1 (LEO VANTAGE 1)   
1 43113U 18004C   25103.65813195  .00005078  00000+0  36660-3 0  9997
2 43113  99.2870 321.1956 0361315 314.1945  43.0083 14.64578463374541
O3B FM15                
1 43231U 18024A   25101.12926257 -.00000026  00000+0  00000+0 0  9998
2 43231   0.0559 357.4056 0003046  24.5340 338.0719  5.00115402129411
O3B FM16                
1 43232U 18024B   25103.78038625 -.00000022  00000+0  00000+0 0  9992
2 43232   0.0596 356.6645 0003031  29.0101 334.3409  5.00115700129468
O3B FM14                
1 43233U 18024C   25103.62105126 -.00000022  00000+0  00000+0 0  9997
2 43233   0.0607 357.6603 0002772  25.9394 336.4132  5.00115353129467
O3B FM13                
1 43234U 18024D   25103.07468454 -.00000023  00000+0  00000+0 0  9994
2 43234   0.0250 348.4431 0002354  66.8004 304.7785  5.00115264129549
O3B FM20                
1 44112U 19020A   25103.84695319 -.00000022  00000+0  00000+0 0  9993
2 44112   0.0522 358.1198 0003302  31.0777 330.8213  5.00115329110087
O3B FM19                
1 44113U 19020B   25099.27675086 -.00000029  00000+0  00000+0 0  9991
2 44113   0.0392 340.9443 0003095  38.7689 340.2959  5.00115195109946
O3B FM17                
1 44114U 19020C   25103.75416866 -.00000022  00000+0  00000+0 0  9993
2 44114   0.0666  11.0908 0003124  13.4210 335.5033  5.00115158110048
O3B FM18                
1 44115U 19020D   25103.50048295 -.00000022  00000+0  00000+0 0  9994
2 44115   0.0520 357.7940 0002913  24.5114 337.7075  5.00115150110159
SALSAT                  
1 46495U 20068K   25103.88927175  .00013767  00000+0  61033-3 0  9991
2 46495  97.8571  79.3539 0011861  10.2866 349.8609 15.21672448249906
O3B MPOWER F1           
1 54755U 22174A   25103.90912441 -.00000022  00000+0  00000+0 0  9996
2 54755   0.0404   9.7299 0004817 358.5895 228.8319  5.00116704 43885
O3B MPOWER F2           
1 54756U 22174B   25103.71109393 -.00000022  00000+0  00000+0 0  9990
2 54756   0.0426  14.3686 0005785   6.8777 338.7780  5.00116425 43950
O3B MPOWER F4           
1 56367U 23059A   25103.81052582 -.00000022  00000+0  00000+0 0  9991
2 56367   0.0448 347.0435 0004277  27.7133 345.2560  5.00117328 37129
O3B MPOWER F3           
1 56368U 23059B   25103.67755225 -.00000022  00000+0  00000+0 0  9990
2 56368   0.0455 345.5421 0006281  35.5853 338.8988  5.00116641 33247
